#aV2021  8 27  0  0  0.00000000     288 DD+AD WGS84 FIT  NGA
## 2172 432000.00000000   300.00000000 59453 0.0000000000000
+   32     1  2  3  4  5  6  7  8  9 10 11 12 13 14 15 16 17
+         18 19 20 21 22 23 24 25 26 27 28 29 30 31 32  0  0
+          0  0  0  0  0  0  0  0  0  0  0  0  0  0  0  0  0
+          0  0  0  0  0  0  0  0  0  0  0  0  0  0  0  0  0
+          0  0  0  0  0  0  0  0  0  0  0  0  0  0  0  0  0
++         2  2  2  2  2  2  2  2  2  2  2  2  2  2  2  2  2
++         2  2  2  2  2  2  2  2  2  2  2  2  2  2  2  0  0
++         0  0  0  0  0  0  0  0  0  0  0  0  0  0  0  0  0
++         0  0  0  0  0  0  0  0  0  0  0  0  0  0  0  0  0
++         0  0  0  0  0  0  0  0  0  0  0  0  0  0  0  0  0
%c cc cc ccc ccc cccc cccc cccc cccc ccccc ccccc ccccc ccccc
%c cc cc ccc ccc cccc cccc cccc cccc ccccc ccccc ccccc ccccc
%f  0.0000000  0.000000000  0.00000000000  0.000000000000000
%f  0.0000000  0.000000000  0.00000000000  0.000000000000000
%i    0    0    0    0      0      0      0      0         0
%i    0    0    0    0      0      0      0      0         0
/*      NGA, ST. LOUIS,MO.                                  
/*   EPHEMERIS COMPUTED FROM 2 DAYS OF DATA                 
/*   EPOCHA v7 SMOOTHER                                     
/*   G2139 IERS2010 SATIGS SATAPC                           
*  2021  8 27 11 55  0.00000000
P  1  16646.378003   4519.604847  20022.494871    585.300370                    
V  1  10036.185610  23854.526608 -13220.071285     -0.112379                    
P  2 -14064.255976 -22340.776787  -1869.947004   -628.850180                    
V  2    909.341726  -4146.984100  31754.736528     -0.022765                    
P  3  18693.318572  -5254.776023  17973.154175   -268.601579                    
V  3 -11958.105873  19752.865175  18212.579548     -0.131037                    
P  4  26274.643555    281.297516  -4107.899863   -204.183959                    
V  4   4850.714321   3313.242162  31149.298163     -0.002235                    
P  5 -13463.227837  -7461.842654 -21812.060545    -52.460349                    
V  5  14763.050446 -22982.764239  -1097.148199     -0.012471                    
P  6  -5090.235759 -24578.450742   8651.372498     63.297645                    
V  6   6344.456957   9066.227993  29739.395972      0.067584                    
P  7  10899.112167 -11726.474823 -20745.441446    233.495162                    
V  7  12321.252343  24406.159123  -7681.946107      0.075776                    
P  8  24927.759541   6567.678471  -7049.374641    -34.204592                    
V  8  -8986.144856   1634.210352 -30000.746606     -0.013929                    
P  9  20850.603804  -8598.838908 -14113.306876   -359.809717                    
V  9  17618.521705   3486.286530  23991.920689     -0.008718                    
P 10 -10449.269543  23296.267148   6883.066641   -190.948599                    
V 10  -7071.055672   5612.423009 -30514.999773     -0.077738                    
P 11 -11566.605194 -23753.841133  -2791.893860     38.687915                    
V 11   1307.850561  -4316.547323  31470.666139      0.032324                    
P 12 -18830.889365   3658.567518  18062.328058    -88.811658                    
V 12  13605.495965 -19177.051295  17950.952829     -0.054207                    
P 13 -19499.526067 -13190.024858 -12582.566643    177.091772                    
V 13  15736.067915   1484.383050 -26092.314886      0.052665                    
P 14  11273.929862 -22955.331980   7067.809070     14.497603                    
V 14   7741.188319  -5405.725640 -29944.291314     -0.084488                    
P 15 -25541.658900  -4371.447939  -6980.491930   -125.419118                    
V 15   8218.421550  -3511.761538 -29150.413810      0.026879                    
P 16   8521.785636  12927.392792 -21773.244679   -380.593181                    
V 16 -17911.221973  20332.307681   5565.553786     -0.063099                    
P 17   8321.895432 -13466.586225  21759.671652    495.697062                    
V 17  26203.158916   4325.234003  -7487.368028      0.057623                    
P 18  -9200.912589  14085.276769 -20543.688672    328.767723                    
V 18 -11388.598791 -23451.768964 -11070.739687     -0.038381                    
P 19  -1947.616466 -15075.494111  21523.708199     45.062742                    
V 19  27463.108279   4976.101426   5746.459778      0.049424                    
P 20  -5830.859776 -18430.437295 -18353.203843    519.436542                    
V 20  11828.537103 -20054.274596  16145.619313     -0.002104                    
P 21  19057.430814  11338.761895  15694.227972    139.516265                    
V 21   7764.154736  16850.211186 -22091.355685      0.020496                    
P 22  16336.206111   2374.229835  20951.526096   -528.005224                    
V 22 -12036.434639  23436.824463   6988.828610      0.093389                    
P 23 -16951.551839  19875.729700  -4619.732509     65.320616                    
V 23    985.679811  -6352.594120 -31173.557586     -0.050197                    
P 24 -18827.331448  -8372.147149  16716.091774    219.873819                    
V 24  -8745.192636 -19906.672671 -19118.742455      0.101041                    
P 25 -19246.216541  14176.142023  11020.921195    198.215814                    
V 25   6020.892232 -13461.396727  27445.571035      0.063866                    
P 26   -150.353273  21458.006342 -15527.785934    127.421781                    
V 26 -12720.170154  15366.856337  21713.287482      0.043130                    
P 27  18112.463604  12154.236649 -15586.534980   -184.362964                    
V 27 -19336.426091   -274.339979 -22592.400992     -0.055104                    
P 28   6799.619192 -22267.588594  13505.711699    512.280796                    
V 28  11739.214026 -11229.628966 -25279.573483     -0.069748                    
P 29 -22896.666320   4847.719734 -12663.449960   -402.596093                    
V 29 -15477.344960  -4172.952066  26420.604771     -0.057806                    
P 30   2413.057164 -21706.206448 -14879.608108   -466.653401                    
V 30  10239.771383  16449.386935 -22466.732807     -0.040373                    
P 31   5939.796431  24804.427220   6378.898414   -136.537976                    
V 31  -6330.005063  -6325.249086  30517.043970     -0.020871                    
P 32  -3959.838027  14976.897581  21677.111894      4.561099                    
V 32 -27162.094915  -2528.408453  -3404.497397     -0.030294                    
EOF
